# From MPEC 2021-S45
388P/Gibbs,e,23.8866,37.0460,42.2991,5.241334,0.0821375,0.61859760,98.6396,11/06.0/2022,2000,g 13.0,4.0
# From MPEC 2022-OB6
389P/Siding Spring,e,160.0835,218.8757,249.3884,5.632853,0.0737244,0.70439101,76.8594,11/06.0/2022,2000,g 16.0,4.0
# From MPEC 2022-OB6
390P/Gibbs,e,18.5588,152.2721,232.3856,5.809288,0.0703914,0.70742609,67.4608,11/06.0/2022,2000,g 12.0,4.0
# From MPEC 2021-F20
391P/Kowalski,e,21.2689,124.7384,187.3080,4.683589,0.0972380,0.11989138,164.2822,11/06.0/2022,2000,g  8.0,4.0
# From MPEC 2021-J28
392P/LINEAR,e,4.9320,24.8869,71.8811,6.140991,0.0647659,0.68310585,61.4631,11/06.0/2022,2000,g 14.5,4.0
# From MPEC 2021-BE3
393P/Spacewatch-Hill,e,16.7876,36.3952,328.7551,4.791839,0.0939617,0.12062214,103.6758,11/06.0/2022,2000,g 11.0,4.0
# From MPEC 2020-KB7
394P/PANSTARRS,e,8.5295,98.1256,54.4701,4.330503,0.1093696,0.36742715,117.2855,11/06.0/2022,2000,g 16.0,2.4
# From MPEC 2022-V95
395P/Catalina-NEAT,e,3.2958,223.0037,90.8095,6.655297,0.0574054,0.38905144,17.6720,11/06.0/2022,2000,g 10.0,4.0
# From MPEC 2020-KB7
396P/,e,5.4367,136.6544,8.4304,6.807408,0.0554921,0.41573108,64.7290,11/06.0/2022,2000,g 12.0,4.0
# From MPEC 2022-OB6
397P/Lemmon,e,10.9298,8.1947,14.5127,3.829722,0.1315083,0.40529429,114.3108,11/06.0/2022,2000,g 12.0,4.0
# From MPEC 2021-L04
398P/Boattini,e,11.0163,127.4452,320.2028,3.126799,0.1782601,0.58296388,121.0628,11/06.0/2022,2000,g 15.5,4.0
# From MPEC 2022-M88
399P/PANSTARRS,e,13.3209,207.1323,214.3419,3.791733,0.1334896,0.44722983,71.0505,11/06.0/2022,2000,g 14.0,4.0
# From MPEC 2022-ED3
400P/PANSTARRS,e,10.9302,176.3914,238.8206,3.561450,0.1466438,0.40951298,92.9260,11/06.0/2022,2000,g 15.5,2.8
# From MPEC 2022-K19
401P/McNaught,e,12.8026,359.8785,309.4232,5.776507,0.0709915,0.57962983,75.6173,11/06.0/2022,2000,g 12.5,4.0
# From MPEC 2022-V95
402P/LINEAR,e,30.8458,123.0926,326.7445,7.022782,0.0529591,0.43926680,17.2820,11/06.0/2022,2000,g  8.0,4.0
# From MPEC 2021-J28
403P/Catalina,e,12.3215,163.8115,277.6374,5.428380,0.0779289,0.50383121,60.8231,11/06.0/2022,2000,g 12.0,4.0
# From MPEC 2022-V95
404P/Bressi,e,9.7493,260.2459,168.3268,4.762942,0.0948181,0.13194388,326.2393,11/06.0/2022,2000,g 10.0,4.0
# From MPEC 2021-L04
405P/Lemmon,e,9.3656,3.3145,112.1931,3.606386,0.1439116,0.68924792,98.1041,11/06.0/2022,2000,g 17.5,4.0
# From MPEC 2021-F20
406P/Gibbs,e,1.2132,11.4858,352.4231,3.576616,0.1457121,0.54203892,113.8150,11/06.0/2022,2000,g 17.0,4.0
# From MPEC 2021-F20
407P/PANSTARRS-Fuls,e,4.8746,80.4462,93.4745,3.474950,0.1521532,0.38061504,153.8079,11/06.0/2022,2000,g 14.0,4.0
# From MPEC 2022-V95
408P/Novichonok-Gerke,e,19.3570,189.4416,226.4653,4.743448,0.0954032,0.26898608,3.0432,11/06.0/2022,2000,g 11.0,4.0
# From MPEC 2022-ED3
409P/LONEOS-Hill,e,17.1203,143.6669,15.1025,6.039763,0.0664009,0.70964299,42.9603,11/06.0/2022,2000,g 14.0,4.0
# From MPEC 2022-M21
410P/NEAT-LINEAR,e,9.3926,139.9780,313.0992,6.640296,0.0576001,0.51106967,28.8198,11/06.0/2022,2000,g 12.5,4.0
# From MPEC 2021-J28
411P/Christensen,e,12.3816,77.6552,46.6138,5.813629,0.0703126,0.58083851,45.7518,11/06.0/2022,2000,g 13.5,4.0
# From MPEC 2021-F20
412P/WISE,e,8.9314,0.8444,155.9449,3.110037,0.1797032,0.47923655,125.9665,11/06.0/2022,2000,g 17.0,4.0
# From MPEC 2022-OB6
413P/Larson,e,15.9810,38.9850,186.2616,3.715393,0.1376248,0.42329486,65.1539,11/06.0/2022,2000,g 14.0,4.0
# From MPEC 2021-BE3
414P/STEREO,e,23.3920,257.7953,210.7065,2.793539,0.2110921,0.81170599,137.1417,11/06.0/2022,2000,g 19.0,4.0
# From MPEC 2022-J42
415P/Tenagra,e,31.7919,160.2920,346.0651,4.112884,0.1181638,0.19465875,74.4289,11/06.0/2022,2000,g 12.0,4.0
# From MPEC 2021-L04
416P/Scotti,e,3.3612,355.8072,134.4351,4.010389,0.1227225,0.45434806,77.1541,11/06.0/2022,2000,g 15.5,4.0
# From MPEC 2021-W31
417P/NEOWISE,e,8.1221,111.0053,129.5784,3.345307,0.1610831,0.55670402,90.5459,11/06.0/2022,2000,g 16.5,4.0
# From MPEC 2022-TA0
418P/LINEAR,e,5.7922,277.5977,307.2602,5.088505,0.0858655,0.66497311,32.9997,11/06.0/2022,2000,g 13.0,4.0
# From MPEC 2022-ST7
419P/PANSTARRS,e,2.8030,40.3888,187.5610,3.521023,0.1491767,0.27750021,55.8459,11/06.0/2022,2000,g 12.5,4.0
# From MPEC 2022-OB6
420P/Hill,e,14.5039,173.9499,157.0077,5.540303,0.0755795,0.49682031,12.6818,11/06.0/2022,2000,g 11.5,4.0
# From MPEC 2021-W31
421P/McNaught,e,10.0777,55.3424,259.8630,5.076094,0.0861806,0.67532847,55.9553,11/06.0/2022,2000,g 14.0,4.0
# From MPEC 2022-V95
422P/Christensen,e,39.5729,36.0232,305.0853,6.310101,0.0621798,0.50802924,18.4426,11/06.0/2022,2000,g 11.0,4.0
# From MPEC 2022-A21
423P/Lemmon,e,8.3462,33.2973,80.2932,6.168982,0.0643256,0.12146173,26.6041,11/06.0/2022,2000,g  8.0,4.0
# From MPEC 2022-CN4
424P/LaSagra,e,8.6850,51.1710,312.5062,4.415731,0.1062185,0.69129160,39.3383,11/06.0/2022,2000,g 17.0,4.0
# From MPEC 2022-OB6
425P/Kowalski,e,16.4204,210.0789,200.7891,6.335880,0.0618007,0.54377556,25.4234,11/06.0/2022,2000,g 12.0,4.0
# From MPEC 2022-P82
426P/PANSTARRS,e,17.7684,280.5116,118.9905,3.187793,0.1731685,0.16148032,306.0709,11/06.0/2022,2000,g 13.5,4.0
# From MPEC 2022-J42
428P/Gibbs,e,8.5132,299.3404,36.8484,3.485246,0.1514795,0.51938305,81.8516,11/06.0/2022,2000,g 15.0,4.0
# From MPEC 2022-H04
429P/LINEAR-Hill,e,7.5213,322.0748,75.5616,3.551825,0.1472403,0.49138960,45.3216,11/06.0/2022,2000,g 15.5,4.0
# From MPEC 2022-L66
430P/Scotti,e,4.4752,54.6729,94.4731,3.105798,0.1800712,0.49954464,61.0115,11/06.0/2022,2000,g 16.5,4.0
# From MPEC 2022-ED3
431P/Scotti,e,22.3921,202.8438,199.8810,3.473245,0.1522653,0.47775434,40.4398,11/06.0/2022,2000,g 14.0,4.0
# From MPEC 2021-U31
432P/PANSTARRS,e,10.0692,239.1423,105.2483,3.035430,0.1863690,0.24190128,80.6349,11/06.0/2022,2000,g 17.0,4.0
# From MPEC 2022-OB6
434P/Tenagra,e,6.3385,288.9672,128.1079,4.129744,0.1174409,0.27456975,44.1469,11/06.0/2022,2000,g 13.0,4.0
# From MPEC 2021-W31
435P/PANSTARRS,e,18.8810,98.5504,244.1797,3.018760,0.1879149,0.31861561,87.6650,11/06.0/2022,2000,g 17.0,4.0
# From MPEC 2022-M88
436P/Garradd,e,20.2088,87.1890,282.6140,5.930001,0.0682530,0.66981868,22.6926,11/06.0/2022,2000,g 14.5,4.0
# From MPEC 2021-Y10
437P/PANSTARRS,e,3.6892,245.8658,206.7331,4.560379,0.1012052,0.25440725,8.0429,11/06.0/2022,2000,g 13.0,4.0
# From MPEC 2021-W47
438P/Christensen,e,8.2852,260.1471,58.9909,3.848171,0.1305637,0.41548649,123.3505,11/06.0/2022,2000,g 14.5,4.0
# From MPEC 2022-C56
439P/LINEAR,e,7.1142,56.4083,342.0350,3.488833,0.1512460,0.46958948,66.0670,11/06.0/2022,2000,g 13.5,4.0
# From MPEC 2022-L66
440P/Kobayashi,e,12.3389,328.8791,183.3081,8.583029,0.0391961,0.76045077,8.6653,11/06.0/2022,2000,g 15.5,4.0
# From MPEC 2022-OB6
441P/PANSTARRS,e,2.5746,143.6158,178.7801,4.134613,0.1172335,0.19548652,238.3717,11/06.0/2022,2000,g 13.5,4.0
# From MPEC 2022-V95
442P/McNaught,e,6.0585,32.0160,310.9645,4.979487,0.0887007,0.53359354,6.9980,11/06.0/2022,2000,g 13.5,4.0
# From MPEC 2022-OB6
443P/PANSTARRS-Christensen,e,19.8866,108.9439,145.1113,4.127743,0.1175263,0.28382708,3.1548,11/06.0/2022,2000,g 13.5,4.0
# From MPEC 2022-UY9
444P/WISE-PANSTARRS,e,22.1244,89.4033,170.9054,3.428150,0.1552796,0.57026662,18.4169,11/06.0/2022,2000,g 17.0,4.0
# From MPEC 2022-V95
445P/Lemmon-PANSTARRS,e,1.0885,126.5715,213.7251,4.061423,0.1204167,0.41447042,9.6565,11/06.0/2022,2000,g 15.0,4.0
# From MPEC 2022-V95
446P/McNaught,e,16.6139,336.4093,344.7363,4.573623,0.1007659,0.64716593,16.1612,11/06.0/2022,2000,g 16.5,4.0
# From MPEC 2022-UY9
447P/Sheppard-Tholen,e,7.4332,302.6816,97.6279,5.643194,0.0735219,0.18011523,5.8240,11/06.0/2022,2000,g 12.0,4.0
# From MPEC 2022-V95
448P/PANSTARRS,e,12.1517,161.7567,218.7320,3.635816,0.1421678,0.41909971,8.5908,11/06.0/2022,2000,g 16.0,4.0
# From MPC107687
1I/`Oumuamua,h,09/09.4886/2017,122.6778,24.5997,241.6845,1.199252,0.255240,2000,23.0,2.0
# From MPEC 2020-K19
2I/Borisov,h,12/08.5549/2019,44.0527,308.1480,209.1251,3.356636,2.006548,2000,11.0,4.0
